STARLINK-30510          
1 57981U 23151T   26067.79743887  .00000089  00000+0  21665-4 0  9996
2 57981  43.0060 356.8477 0001276 250.8138 109.2566 15.02539259135445
SEDNA-1                 
1 60580U 24149DS  26068.76583836  .00008721  00000+0  60834-3 0  9998
2 60580  97.6673 149.7617 0008344 330.8481  29.2278 15.05597965 85421
